{"type": "FeatureCollection", "features": [ {"type": "Feature", "properties": {"norad_id": 31989, "name": "FENGYUN 1C DEB", "group": "fengyun-1c-debris", "lat": -76.49920295072066, "lon": 105.30754579234217, "alt_km": 844.9570144311483, "timestamp": "2025-12-27T16:33:30.507667+00:00", "meta": {"OBJECT_NAME": "FENGYUN 1C DEB", "OBJECT_ID": "1999-025CPS", "EPOCH": "2025-12-27T03:17:39.045408", "MEAN_MOTION": 13.93610691, "ECCENTRICITY": 0.01153974, "INCLINATION": 99.2115, "RA_OF_ASC_NODE": 62.2355, "ARG_OF_PERICENTER": 259.697, "MEAN_ANOMALY": 128.4579, "EPHEMERIS_TYPE": 0, "CLASSIFICATION_TYPE": "U", "NORAD_CAT_ID": 31989, "ELEMENT_SET_NO": 999, "REV_AT_EPOCH": 93918, "BSTAR": 0.00054565726, "MEAN_MOTION_DOT": 7.11e-06, "MEAN_MOTION_DDOT": 0}, "tle": {"line1": "1 31989U 99025CPS 25361.13725747  .00000711  00000+0  54566-3 0  9995", "line2": "2 31989  99.2115  62.2355 0115397 259.6970 128.4579 13.93610691939181"}}, "geometry": {"type": "Point", "coordinates": [105.30754579234217, -76.49920295072066]}}, {"type": "Feature", "properties": {"norad_id": 31990, "name": "FENGYUN 1C DEB", "group": "fengyun-1c-debris", "lat": -42.23126242235623, "lon": -165.25445248621557, "alt_km": 1002.416157113913, "timestamp": "2025-12-27T16:33:30.507678+00:00", "meta": {"OBJECT_NAME": "FENGYUN 1C DEB", "OBJECT_ID": "1999-025CPT", "EPOCH": "2025-12-26T07:44:19.801824", "MEAN_MOTION": 13.57209467, "ECCENTRICITY": 0.0260523, "INCLINATION": 99.1596, "RA_OF_ASC_NODE": 21.8922, "ARG_OF_PERICENTER": 149.8306, "MEAN_ANOMALY": 232.1284, "EPHEMERIS_TYPE": 0, "CLASSIFICATION_TYPE": "U", "NORAD_CAT_ID": 31990, "ELEMENT_SET_NO": 999, "REV_AT_EPOCH": 62956, "BSTAR": 0.00028173, "MEAN_MOTION_DOT": 2.12e-06, "MEAN_MOTION_DDOT": 0}, "tle": {"line1": "1 31990U 99025CPT 25360.32245141  .00000212  00000+0  28173-3 0  9993", "line2": "2 31990  99.1596  21.8922 0260523 149.8306 232.1284 13.57209467629560"}}, "geometry": {"type": "Point", "coordinates": [-165.25445248621557, -42.23126242235623]}}, {"type": "Feature", "properties": {"norad_id": 31991, "name": "FENGYUN 1C DEB", "group": "fengyun-1c-debris", "lat": 72.96666892808979, "lon": 48.96641938894589, "alt_km": 1009.772035101385, "timestamp": "2025-12-27T16:33:30.507688+00:00", "meta": {"OBJECT_NAME": "FENGYUN 1C DEB", "OBJECT_ID": "1999-025CPU", "EPOCH": "2025-12-22T17:53:19.962816", "MEAN_MOTION": 13.61281478, "ECCENTRICITY": 0.02444249, "INCLINATION": 100.486, "RA_OF_ASC_NODE": 186.4677, "ARG_OF_PERICENTER": 28.7327, "MEAN_ANOMALY": 332.7029, "EPHEMERIS_TYPE": 0, "CLASSIFICATION_TYPE": "U", "NORAD_CAT_ID": 31991, "ELEMENT_SET_NO": 999, "REV_AT_EPOCH": 62223, "BSTAR": 0.00015589041, "MEAN_MOTION_DOT": 9.4e-07, "MEAN_MOTION_DDOT": 0}, "tle": {"line1": "1 31991U 99025CPU 25356.74536994  .00000094  00000+0  15589-3 0  9999", "line2": "2 31991 100.4860 186.4677 0244424  28.7327 332.7029 13.61281478622234"}}, "geometry": {"type": "Point", "coordinates": [48.96641938894589, 72.96666892808979]}}, {"type": "Feature", "properties": {"norad_id": 31992, "name": "FENGYUN 1C DEB", "group": "fengyun-1c-debris", "lat": 80.62535123757833, "lon": -142.1847727068159, "alt_km": 1204.3967474319334, "timestamp": "2025-12-27T16:33:30.507698+00:00", "meta": {"OBJECT_NAME": "FENGYUN 1C DEB", "OBJECT_ID": "1999-025CPV", "EPOCH": "2025-12-27T03:25:09.414912", "MEAN_MOTION": 13.23026425, "ECCENTRICITY": 0.05422536, "INCLINATION": 99.168, "RA_OF_ASC_NODE": 319.3334, "ARG_OF_PERICENTER": 354.7588, "MEAN_ANOMALY": 4.7998, "EPHEMERIS_TYPE": 0, "CLASSIFICATION_TYPE": "U", "NORAD_CAT_ID": 31992, "ELEMENT_SET_NO": 999, "REV_AT_EPOCH": 54065, "BSTAR": 0.0015949504, "MEAN_MOTION_DOT": 1.431e-05, "MEAN_MOTION_DDOT": 0}, "tle": {"line1": "1 31992U 99025CPV 25361.14247008  .00001431  00000+0  15950-2 0  9992", "line2": "2 31992  99.1680 319.3334 0542253 354.7588   4.7998 13.23026425540651"}}, "geometry": {"type": "Point", "coordinates": [-142.1847727068159, 80.62535123757833]}}, {"type": "Feature", "properties": {"norad_id": 31993, "name": "FENGYUN 1C DEB", "group": "fengyun-1c-debris", "lat": -3.2629997288088175, "lon": -27.082960917938852, "alt_km": 1211.8917815027735, "timestamp": "2025-12-27T16:33:30.507708+00:00", "meta": {"OBJECT_NAME": "FENGYUN 1C DEB", "OBJECT_ID": "1999-025CPW", "EPOCH": "2025-12-27T03:54:48.256128", "MEAN_MOTION": 13.27498111, "ECCENTRICITY": 0.04236377, "INCLINATION": 99.2396, "RA_OF_ASC_NODE": 331.9138, "ARG_OF_PERICENTER": 99.9369, "MEAN_ANOMALY": 264.9833, "EPHEMERIS_TYPE": 0, "CLASSIFICATION_TYPE": "U", "NORAD_CAT_ID": 31993, "ELEMENT_SET_NO": 999, "REV_AT_EPOCH": 89134, "BSTAR": 0.0026673984, "MEAN_MOTION_DOT": 1.921e-05, "MEAN_MOTION_DDOT": 0}, "tle": {"line1": "1 31993U 99025CPW 25361.16305852  .00001921  00000+0  26674-2 0  9996", "line2": "2 31993  99.2396 331.9138 0423637  99.9369 264.9833 13.27498111891340"}}, "geometry": {"type": "Point", "coordinates": [-27.082960917938852, -3.2629997288088175]}}, {"type": "Feature", "properties": {"norad_id": 31994, "name": "FENGYUN 1C DEB", "group": "fengyun-1c-debris", "lat": -81.45293004277305, "lon": 86.03977559452326, "alt_km": 1030.3922123457096, "timestamp": "2025-12-27T16:33:30.507721+00:00", "meta": {"OBJECT_NAME": "FENGYUN 1C DEB", "OBJECT_ID": "1999-025CPX", "EPOCH": "2025-12-26T06:35:31.147584", "MEAN_MOTION": 13.95762351, "ECCENTRICITY": 0.0162762, "INCLINATION": 98.5398, "RA_OF_ASC_NODE": 353.4695, "ARG_OF_PERICENTER": 108.559, "MEAN_ANOMALY": 253.3332, "EPHEMERIS_TYPE": 0, "CLASSIFICATION_TYPE": "U", "NORAD_CAT_ID": 31994, "ELEMENT_SET_NO": 999, "REV_AT_EPOCH": 56985, "BSTAR": 0.00032764, "MEAN_MOTION_DOT": 4.61e-06, "MEAN_MOTION_DDOT": 0}, "tle": {"line1": "1 31994U 99025CPX 25360.27466606  .00000461  00000+0  32764-3 0  9999", "line2": "2 31994  98.5398 353.4695 0162762 108.5590 253.3332 13.95762351569853"}}, "geometry": {"type": "Point", "coordinates": [86.03977559452326, -81.45293004277305]}}, {"type": "Feature", "properties": {"norad_id": 31997, "name": "FENGYUN 1C DEB", "group": "fengyun-1c-debris", "lat": 23.926316382414104, "lon": -125.02037884077434, "alt_km": 1006.2806249753066, "timestamp": "2025-12-27T16:33:30.507731+00:00", "meta": {"OBJECT_NAME": "FENGYUN 1C DEB", "OBJECT_ID": "1999-025CQA", "EPOCH": "2025-12-20T23:11:18.735648", "MEAN_MOTION": 13.60709334, "ECCENTRICITY": 0.02907832, "INCLINATION": 102.5098, "RA_OF_ASC_NODE": 40.7426, "ARG_OF_PERICENTER": 255.2895, "MEAN_ANOMALY": 101.5842, "EPHEMERIS_TYPE": 0, "CLASSIFICATION_TYPE": "U", "NORAD_CAT_ID": 31997, "ELEMENT_SET_NO": 999, "REV_AT_EPOCH": 61795, "BSTAR": 0.0021157965, "MEAN_MOTION_DOT": 2.046e-05, "MEAN_MOTION_DDOT": 0}, "tle": {"line1": "1 31997U 99025CQA 25354.96618907  .00002046  00000+0  21158-2 0  9999", "line2": "2 31997 102.5098  40.7426 0290783 255.2895 101.5842 13.60709334617959"}}, "geometry": {"type": "Point", "coordinates": [-125.02037884077434, 23.926316382414104]}}, {"type": "Feature", "properties": {"norad_id": 32086, "name": "FENGYUN 1C DEB", "group": "fengyun-1c-debris", "lat": 53.40794144028527, "lon": -111.2481443058894, "alt_km": 803.3578232657692, "timestamp": "2025-12-27T16:33:30.507743+00:00", "meta": {"OBJECT_NAME": "FENGYUN 1C DEB", "OBJECT_ID": "1999-025CQC", "EPOCH": "2025-12-23T20:45:31.853664", "MEAN_MOTION": 13.68944984, "ECCENTRICITY": 0.029869, "INCLINATION": 99.2686, "RA_OF_ASC_NODE": 52.364, "ARG_OF_PERICENTER": 106.7235, "MEAN_ANOMALY": 256.6913, "EPHEMERIS_TYPE": 0, "CLASSIFICATION_TYPE": "U", "NORAD_CAT_ID": 32086, "ELEMENT_SET_NO": 999, "REV_AT_EPOCH": 61933, "BSTAR": 0.0021459, "MEAN_MOTION_DOT": 2.491e-05, "MEAN_MOTION_DDOT": 0}, "tle": {"line1": "1 32086U 99025CQC 25357.86495201  .00002491  00000+0  21459-2 0  9999", "line2": "2 32086  99.2686  52.3640 0298690 106.7235 256.6913 13.68944984619339"}}, "geometry": {"type": "Point", "coordinates": [-111.2481443058894, 53.40794144028527]}}, {"type": "Feature", "properties": {"norad_id": 32088, "name": "FENGYUN 1C DEB", "group": "fengyun-1c-debris", "lat": 63.30387874172361, "lon": -155.36836593208798, "alt_km": 1209.7482952742603, "timestamp": "2025-12-27T16:33:30.507753+00:00", "meta": {"OBJECT_NAME": "FENGYUN 1C DEB", "OBJECT_ID": "1999-025CQE", "EPOCH": "2025-12-26T22:07:11.572608", "MEAN_MOTION": 13.25242253, "ECCENTRICITY": 0.046165, "INCLINATION": 102.3999, "RA_OF_ASC_NODE": 229.658, "ARG_OF_PERICENTER": 326.7681, "MEAN_ANOMALY": 30.5204, "EPHEMERIS_TYPE": 0, "CLASSIFICATION_TYPE": "U", "NORAD_CAT_ID": 32088, "ELEMENT_SET_NO": 999, "REV_AT_EPOCH": 60032, "BSTAR": 0.0033361, "MEAN_MOTION_DOT": 2.513e-05, "MEAN_MOTION_DDOT": 0}, "tle": {"line1": "1 32088U 99025CQE 25360.92166172  .00002513  00000+0  33361-2 0  9994", "line2": "2 32088 102.3999 229.6580 0461650 326.7681  30.5204 13.25242253600327"}}, "geometry": {"type": "Point", "coordinates": [-155.36836593208798, 63.30387874172361]}}, {"type": "Feature", "properties": {"norad_id": 32089, "name": "FENGYUN 1C DEB", "group": "fengyun-1c-debris", "lat": -67.87499608266704, "lon": 164.79521266297942, "alt_km": 931.9807821103614, "timestamp": "2025-12-27T16:33:30.507763+00:00", "meta": {"OBJECT_NAME": "FENGYUN 1C DEB", "OBJECT_ID": "1999-025CQF", "EPOCH": "2025-12-23T06:06:14.384160", "MEAN_MOTION": 14.14091196, "ECCENTRICITY": 0.01123625, "INCLINATION": 98.6546, "RA_OF_ASC_NODE": 2.4994, "ARG_OF_PERICENTER": 94.1409, "MEAN_ANOMALY": 267.2615, "EPHEMERIS_TYPE": 0, "CLASSIFICATION_TYPE": "U", "NORAD_CAT_ID": 32089, "ELEMENT_SET_NO": 999, "REV_AT_EPOCH": 63364, "BSTAR": 0.0004947317, "MEAN_MOTION_DOT": 9.59e-06, "MEAN_MOTION_DDOT": 0}, "tle": {"line1": "1 32089U 99025CQF 25357.25433315  .00000959  00000+0  49473-3 0  9997", "line2": "2 32089  98.6546   2.4994 0112362  94.1409 267.2615 14.14091196633649"}}, "geometry": {"type": "Point", "coordinates": [164.79521266297942, -67.87499608266704]}}]}